FENGYUN 1C DEB          
1 31995U 99025CPY 17344.16444073  .00000956  00000-0  77892-3 0  9996
2 31995  98.4013 318.1158 0146559  84.0486 277.7355 13.87027391223678
